IRIDIUM 150             
1 43257U 18030J   24021.80901897  .00000562  00000+0  19345-3 0  9991
2 43257  86.3975 297.1456 0001683  80.6231 279.5155 14.34219769304404
IRIDIUM 143             
1 43258U 18030K   24021.85975994  .00000279  00000+0  92424-4 0  9991
2 43258  86.3979 297.1823 0001702  88.2796 271.8595 14.34217778304343
IRIDIUM 161             
1 43478U 18047C   24021.71781873  .00000688  00000+0  19856-3 0  9990
2 43478  86.4480  95.2221 0002245  88.2333 271.9125 14.43292965298572
IRIDIUM 152             
1 43479U 18047D   24021.62317311  .00000448  00000+0  15300-3 0  9997
2 43479  86.3951  95.1210 0002065  99.7004 260.4425 14.34219161296700
IRIDIUM 147             
1 43480U 18047E   24021.69928582  .00000446  00000+0  15204-3 0  9995
2 43480  86.3951  95.0788 0002288  89.7705 270.3753 14.34218258296716
IRIDIUM 110             
1 43481U 18047F   24021.70562890  .00000065  00000+0  16232-4 0  9994
2 43481  86.3956  95.1457 0002263  81.4100 278.7352 14.34217377296704
IRIDIUM 162             
1 43482U 18047G   24021.71157265  .00000676  00000+0  19482-3 0  9999
2 43482  86.4476  95.1268 0002178  93.4202 266.7248 14.43310332298566
IRIDIUM 160             
1 43569U 18061A   24021.65146460  .00000165  00000+0  51814-4 0  9998
2 43569  86.3936  63.5150 0002608  97.9364 262.2128 14.34217580287597
